<?xml version="1.0" encoding="UTF-8"?>
<kml xmlns="http://www.opengis.net/kml/2.2" xmlns:gx="http://www.google.com/kml/ext/2.2" xmlns:kml="http://www.opengis.net/kml/2.2" xmlns:atom="http://www.w3.org/2005/Atom">
<Document>
	<name>trackBlocks.kml</name>
	<StyleMap id="m_ylw-pushpin0">
		<Pair>
			<key>normal</key>
			<styleUrl>#s_ylw-pushpin0</styleUrl>
		</Pair>
		<Pair>
			<key>highlight</key>
			<styleUrl>#s_ylw-pushpin_hl0</styleUrl>
		</Pair>
	</StyleMap>
	<Style id="s_ylw-pushpin0">
		<IconStyle>
			<scale>1.1</scale>
			<Icon>
				<href>http://maps.google.com/mapfiles/kml/pushpin/ylw-pushpin.png</href>
			</Icon>
			<hotSpot x="20" y="2" xunits="pixels" yunits="pixels"/>
		</IconStyle>
		<PolyStyle>
			<color>bfffffff</color>
			<colorMode>random</colorMode>
			<outline>0</outline>
		</PolyStyle>
	</Style>
	<Style id="s_ylw-pushpin_hl0">
		<IconStyle>
			<scale>1.3</scale>
			<Icon>
				<href>http://maps.google.com/mapfiles/kml/pushpin/ylw-pushpin.png</href>
			</Icon>
			<hotSpot x="20" y="2" xunits="pixels" yunits="pixels"/>
		</IconStyle>
		<PolyStyle>
			<color>bfffffff</color>
			<colorMode>random</colorMode>
			<outline>0</outline>
		</PolyStyle>
	</Style>
	<Folder>
		<name>AKL-TrackBlocks</name>
		<open>1</open>
		<Style>
			<ListStyle>
				<listItemType>check</listItemType>
				<ItemIcon>
					<state>open</state>
					<href>:/mysavedplaces_open.png</href>
				</ItemIcon>
				<ItemIcon>
					<state>closed</state>
					<href>:/mysavedplaces_closed.png</href>
				</ItemIcon>
				<bgColor>00ffffff</bgColor>
				<maxSnippetLines>2</maxSnippetLines>
			</ListStyle>
		</Style>
		<Placemark>
			<name>100 - Swanson</name>
			<styleUrl>#m_ylw-pushpin0</styleUrl>
			<Polygon>
				<tessellate>1</tessellate>
				<outerBoundaryIs>
					<LinearRing>
						<coordinates>
							174.5736162416993,-36.86627040724385,0 174.5776249385914,-36.86660086403126,0 174.5777083386414,-36.86627828364898,0 174.5757065253773,-36.8659808654191,0 174.574820993871,-36.86586760216098,0 174.5734219117159,-36.86604589327226,0 174.5736162416993,-36.86627040724385,0 
						</coordinates>
					</LinearRing>
				</outerBoundaryIs>
			</Polygon>
		</Placemark>
		<Placemark>
			<name>101</name>
			<styleUrl>#m_ylw-pushpin0</styleUrl>
			<Polygon>
				<tessellate>1</tessellate>
				<outerBoundaryIs>
					<LinearRing>
						<coordinates>
							174.5775960238713,-36.86666575184083,0 174.5814488433921,-36.86746624836938,0 174.5815875982251,-36.86662255474639,0 174.5777194894386,-36.86620843653606,0 174.5775960238713,-36.86666575184083,0 
						</coordinates>
					</LinearRing>
				</outerBoundaryIs>
			</Polygon>
		</Placemark>
		<Placemark>
			<name>102</name>
			<styleUrl>#m_ylw-pushpin0</styleUrl>
			<Polygon>
				<tessellate>1</tessellate>
				<outerBoundaryIs>
					<LinearRing>
						<coordinates>
							174.5813793135131,-36.86773599354426,0 174.5911282146012,-36.86856869993527,0 174.5910481886742,-36.86737554678236,0 174.581585597109,-36.86647375313039,0 174.5813793135131,-36.86773599354426,0 
						</coordinates>
					</LinearRing>
				</outerBoundaryIs>
			</Polygon>
		</Placemark>
		<Placemark>
			<name>103</name>
			<styleUrl>#m_ylw-pushpin0</styleUrl>
			<Polygon>
				<tessellate>1</tessellate>
				<outerBoundaryIs>
					<LinearRing>
						<coordinates>
							174.5911305414781,-36.86868238677824,0 174.6027508675909,-36.8680864889238,0 174.6030118579066,-36.86682965727416,0 174.5910381483378,-36.86727786916089,0 174.5911305414781,-36.86868238677824,0 
						</coordinates>
					</LinearRing>
				</outerBoundaryIs>
			</Polygon>
		</Placemark>
		<Placemark>
			<name>104 - Rānui</name>
			<styleUrl>#m_ylw-pushpin0</styleUrl>
			<Polygon>
				<tessellate>1</tessellate>
				<outerBoundaryIs>
					<LinearRing>
						<coordinates>
							174.6027432051808,-36.86805594278305,0 174.6043990988898,-36.86827181435924,0 174.6044449108638,-36.86800203905756,0 174.6028084793233,-36.8677397926585,0 174.6027432051808,-36.86805594278305,0 
						</coordinates>
					</LinearRing>
				</outerBoundaryIs>
			</Polygon>
		</Placemark>
		<Placemark>
			<name>105</name>
			<styleUrl>#m_ylw-pushpin0</styleUrl>
			<Polygon>
				<tessellate>1</tessellate>
				<outerBoundaryIs>
					<LinearRing>
						<coordinates>
							174.6043834443472,-36.86829719930804,0 174.6200308759305,-36.8735147063962,0 174.6202501825097,-36.87310278259624,0 174.6144025198963,-36.86732554972685,0 174.6044422147201,-36.86795763536718,0 174.6043834443472,-36.86829719930804,0 
						</coordinates>
					</LinearRing>
				</outerBoundaryIs>
			</Polygon>
		</Placemark>
		<Placemark>
			<name>106 - Sturges Rd</name>
			<styleUrl>#m_ylw-pushpin0</styleUrl>
			<Polygon>
				<tessellate>1</tessellate>
				<outerBoundaryIs>
					<LinearRing>
						<coordinates>
							174.6200738530484,-36.87342190296841,0 174.6216047571405,-36.87392465853231,0 174.6217376253484,-36.87363970008145,0 174.620201929357,-36.87316904343561,0 174.6200738530484,-36.87342190296841,0 
						</coordinates>
					</LinearRing>
				</outerBoundaryIs>
			</Polygon>
		</Placemark>
		<Placemark>
			<name>107</name>
			<styleUrl>#m_ylw-pushpin0</styleUrl>
			<Polygon>
				<tessellate>1</tessellate>
				<outerBoundaryIs>
					<LinearRing>
						<coordinates>
							174.6215833296304,-36.87395289887363,0 174.6305703699414,-36.88021320721107,0 174.6312732899958,-36.88017820381323,0 174.631839660382,-36.87588083349178,0 174.6217502174264,-36.8736051270854,0 174.6215833296304,-36.87395289887363,0 
						</coordinates>
					</LinearRing>
				</outerBoundaryIs>
			</Polygon>
		</Placemark>
		<Placemark>
			<name>108 - Henderson (+109)</name>
			<styleUrl>#m_ylw-pushpin0</styleUrl>
			<Polygon>
				<tessellate>1</tessellate>
				<outerBoundaryIs>
					<LinearRing>
						<coordinates>
							174.6306795359838,-36.88181704208066,0 174.6312671501141,-36.88179561730827,0 174.6312429217475,-36.88017539051664,0 174.6305965550641,-36.88020167804476,0 174.6306795359838,-36.88181704208066,0 
						</coordinates>
					</LinearRing>
				</outerBoundaryIs>
			</Polygon>
		</Placemark>
		<Placemark>
			<name>110</name>
			<styleUrl>#m_ylw-pushpin0</styleUrl>
			<Polygon>
				<tessellate>1</tessellate>
				<outerBoundaryIs>
					<LinearRing>
						<coordinates>
							174.6313656564255,-36.8964170000642,0 174.6324935274402,-36.89639173904703,0 174.6315352260372,-36.88177898335715,0 174.6301908078911,-36.88181522380226,0 174.6301791252222,-36.88753799521297,0 174.6312270889802,-36.88750124375143,0 174.6314344415254,-36.89043298298009,0 174.6311276206377,-36.89056239981899,0 174.6313656564255,-36.8964170000642,0 
						</coordinates>
					</LinearRing>
				</outerBoundaryIs>
			</Polygon>
		</Placemark>
		<Placemark>
			<name>111 - Henderson Stabling Facility</name>
			<styleUrl>#m_ylw-pushpin0</styleUrl>
			<Polygon>
				<tessellate>1</tessellate>
				<outerBoundaryIs>
					<LinearRing>
						<coordinates>
							174.6303029879169,-36.89090665776752,0 174.6314909764556,-36.89041672115173,0 174.6313550756898,-36.88844757265526,0 174.6312922119141,-36.88749582112256,0 174.6301731331309,-36.88752002448515,0 174.6303029879169,-36.89090665776752,0 
						</coordinates>
					</LinearRing>
				</outerBoundaryIs>
			</Polygon>
		</Placemark>
		<Placemark>
			<name>112 - Sunnyvale</name>
			<styleUrl>#m_ylw-pushpin0</styleUrl>
			<Polygon>
				<tessellate>1</tessellate>
				<outerBoundaryIs>
					<LinearRing>
						<coordinates>
							174.6317098827437,-36.89759455373552,0 174.6321589223064,-36.8975753143709,0 174.6320757054116,-36.89624890362017,0 174.631631680007,-36.89625224821398,0 174.6317098827437,-36.89759455373552,0 
						</coordinates>
					</LinearRing>
				</outerBoundaryIs>
			</Polygon>
		</Placemark>
		<Placemark>
			<name>113</name>
			<styleUrl>#m_ylw-pushpin0</styleUrl>
			<Polygon>
				<tessellate>1</tessellate>
				<outerBoundaryIs>
					<LinearRing>
						<coordinates>
							174.6316331369349,-36.89758684109069,0 174.6315433095986,-36.89997592862419,0 174.6397703920601,-36.90614652017771,0 174.640203947021,-36.90563956404547,0 174.632231961315,-36.8975620262222,0 174.6316331369349,-36.89758684109069,0 
						</coordinates>
					</LinearRing>
				</outerBoundaryIs>
			</Polygon>
		</Placemark>
		<Placemark>
			<name>114</name>
			<styleUrl>#m_ylw-pushpin0</styleUrl>
			<Polygon>
				<tessellate>1</tessellate>
				<outerBoundaryIs>
					<LinearRing>
						<coordinates>
							174.6397150845945,-36.90620152310526,0 174.6522145115871,-36.9104065309581,0 174.6526303267901,-36.90957069985974,0 174.6404296790824,-36.90535757025297,0 174.6397150845945,-36.90620152310526,0 
						</coordinates>
					</LinearRing>
				</outerBoundaryIs>
			</Polygon>
		</Placemark>
		<Placemark>
			<name>115 - Glen Eden</name>
			<styleUrl>#m_ylw-pushpin0</styleUrl>
			<Polygon>
				<tessellate>1</tessellate>
				<outerBoundaryIs>
					<LinearRing>
						<coordinates>
							174.6522067089928,-36.91039650140034,0 174.6543348873148,-36.91105475021648,0 174.6547529731016,-36.91025870035801,0 174.6526071766831,-36.90956233371247,0 174.6522067089928,-36.91039650140034,0 
						</coordinates>
					</LinearRing>
				</outerBoundaryIs>
			</Polygon>
		</Placemark>
		<Placemark>
			<name>116</name>
			<styleUrl>#m_ylw-pushpin0</styleUrl>
			<Polygon>
				<tessellate>1</tessellate>
				<outerBoundaryIs>
					<LinearRing>
						<coordinates>
							174.6539355379121,-36.91185754971343,0 174.6660858222489,-36.91204158263684,0 174.6663641727845,-36.9099253859622,0 174.6547191587531,-36.91025124570684,0 174.6539355379121,-36.91185754971343,0 
						</coordinates>
					</LinearRing>
				</outerBoundaryIs>
			</Polygon>
		</Placemark>
		<Placemark>
			<name>117 - Fruitvale Rd</name>
			<styleUrl>#m_ylw-pushpin0</styleUrl>
			<Polygon>
				<tessellate>1</tessellate>
				<outerBoundaryIs>
					<LinearRing>
						<coordinates>
							174.6662360558514,-36.91075623431357,0 174.6678138039247,-36.91112389088055,0 174.6679820539711,-36.9107288171652,0 174.6662975903529,-36.91023250714389,0 174.6662360558514,-36.91075623431357,0 
						</coordinates>
					</LinearRing>
				</outerBoundaryIs>
			</Polygon>
		</Placemark>
		<Placemark>
			<name>118</name>
			<styleUrl>#m_ylw-pushpin0</styleUrl>
			<Polygon>
				<tessellate>1</tessellate>
				<outerBoundaryIs>
					<LinearRing>
						<coordinates>
							174.667263069568,-36.91258877796228,0 174.6842478590414,-36.91076414581234,0 174.6829579158691,-36.90812435662504,0 174.6681113600798,-36.91029358363331,0 174.667263069568,-36.91258877796228,0 
						</coordinates>
					</LinearRing>
				</outerBoundaryIs>
			</Polygon>
		</Placemark>
		<Placemark>
			<name>119 - New Lynn</name>
			<styleUrl>#m_ylw-pushpin0</styleUrl>
			<Polygon>
				<tessellate>1</tessellate>
				<outerBoundaryIs>
					<LinearRing>
						<coordinates>
							174.6830380401277,-36.90831265386821,0 174.6841456102684,-36.91057738265894,0 174.6869575936178,-36.90974689374408,0 174.685750345674,-36.90751491884348,0 174.6830380401277,-36.90831265386821,0 
						</coordinates>
					</LinearRing>
				</outerBoundaryIs>
			</Polygon>
		</Placemark>
		<Placemark>
			<name>120</name>
			<styleUrl>#m_ylw-pushpin0</styleUrl>
			<Polygon>
				<tessellate>1</tessellate>
				<outerBoundaryIs>
					<LinearRing>
						<coordinates>
							174.685619689426,-36.90734916956212,0 174.6870481747164,-36.90994460893477,0 174.6968450424289,-36.90984077815426,0 174.6964018493223,-36.90605154174605,0 174.6960465530042,-36.90594384665101,0 174.685619689426,-36.90734916956212,0 
						</coordinates>
					</LinearRing>
				</outerBoundaryIs>
			</Polygon>
		</Placemark>
		<Placemark>
			<name>121</name>
			<styleUrl>#m_ylw-pushpin0</styleUrl>
			<Polygon>
				<tessellate>1</tessellate>
				<outerBoundaryIs>
					<LinearRing>
						<coordinates>
							174.6950709809812,-36.90568657573206,0 174.697476566163,-36.90636091160122,0 174.7009450654244,-36.89763800446075,0 174.6977850531329,-36.89781053267948,0 174.6950709809812,-36.90568657573206,0 
						</coordinates>
					</LinearRing>
				</outerBoundaryIs>
			</Polygon>
		</Placemark>
		<Placemark>
			<name>122 - Avondale</name>
			<styleUrl>#m_ylw-pushpin0</styleUrl>
			<Polygon>
				<tessellate>1</tessellate>
				<outerBoundaryIs>
					<LinearRing>
						<coordinates>
							174.6987910462748,-36.89776822116605,0 174.6996344283485,-36.89772847018832,0 174.6995758577941,-36.8962698405193,0 174.6987447513542,-36.896285027665,0 174.6987910462748,-36.89776822116605,0 
						</coordinates>
					</LinearRing>
				</outerBoundaryIs>
			</Polygon>
		</Placemark>
		<Placemark>
			<name>123</name>
			<styleUrl>#m_ylw-pushpin0</styleUrl>
			<Polygon>
				<tessellate>1</tessellate>
				<outerBoundaryIs>
					<LinearRing>
						<coordinates>
							174.7024202989961,-36.89624575619222,0 174.7149068943101,-36.88618330986989,0 174.7125553592702,-36.88467789558416,0 174.6984862997052,-36.89347096100994,0 174.6985174373041,-36.89629291588147,0 174.7024202989961,-36.89624575619222,0 
						</coordinates>
					</LinearRing>
				</outerBoundaryIs>
			</Polygon>
		</Placemark>
		<Placemark>
			<name>124 - Mt Albert</name>
			<styleUrl>#m_ylw-pushpin0</styleUrl>
			<Polygon>
				<tessellate>1</tessellate>
				<outerBoundaryIs>
					<LinearRing>
						<coordinates>
							174.7143882694717,-36.88587947351301,0 174.7155015281504,-36.88457827632638,0 174.7141283591693,-36.88387152358744,0 174.7129010101338,-36.88494341532885,0 174.7143882694717,-36.88587947351301,0 
						</coordinates>
					</LinearRing>
				</outerBoundaryIs>
			</Polygon>
		</Placemark>
		<Placemark>
			<name>125</name>
			<styleUrl>#m_ylw-pushpin0</styleUrl>
			<Polygon>
				<tessellate>1</tessellate>
				<outerBoundaryIs>
					<LinearRing>
						<coordinates>
							174.7155152569405,-36.88458416640893,0 174.7203953522029,-36.87867879123594,0 174.7188976263692,-36.87617778980403,0 174.7139738931567,-36.88382728403965,0 174.7155152569405,-36.88458416640893,0 
						</coordinates>
					</LinearRing>
				</outerBoundaryIs>
			</Polygon>
		</Placemark>
		<Placemark>
			<name>126 - Baldwin Ave</name>
			<styleUrl>#m_ylw-pushpin0</styleUrl>
			<Polygon>
				<tessellate>1</tessellate>
				<outerBoundaryIs>
					<LinearRing>
						<coordinates>
							174.7197802395103,-36.8777298747003,0 174.7200072076815,-36.87807615956439,0 174.7218633329435,-36.87753588826047,0 174.7217164652584,-36.87710453841283,0 174.7197802395103,-36.8777298747003,0 
						</coordinates>
					</LinearRing>
				</outerBoundaryIs>
			</Polygon>
		</Placemark>
		<Placemark>
			<name>127</name>
			<styleUrl>#m_ylw-pushpin0</styleUrl>
			<Polygon>
				<tessellate>1</tessellate>
				<outerBoundaryIs>
					<LinearRing>
						<coordinates>
							174.7214905980965,-36.87655850117036,0 174.7220698443776,-36.87816882054504,0 174.7281610267002,-36.87708765146239,0 174.7281685288655,-36.87603971010345,0 174.7214905980965,-36.87655850117036,0 
						</coordinates>
					</LinearRing>
				</outerBoundaryIs>
			</Polygon>
		</Placemark>
		<Placemark>
			<name>128</name>
			<styleUrl>#m_ylw-pushpin0</styleUrl>
			<Polygon>
				<tessellate>1</tessellate>
				<outerBoundaryIs>
					<LinearRing>
						<coordinates>
							174.7281631094364,-36.87600566184798,0 174.7281427954417,-36.87761842748117,0 174.7331970654849,-36.87630317995692,0 174.7347267303055,-36.87570884519548,0 174.7342135525122,-36.8748131620978,0 174.7281631094364,-36.87600566184798,0 
						</coordinates>
					</LinearRing>
				</outerBoundaryIs>
			</Polygon>
		</Placemark>
		<Placemark>
			<name>129 - Morningside</name>
			<styleUrl>#m_ylw-pushpin0</styleUrl>
			<Polygon>
				<tessellate>1</tessellate>
				<outerBoundaryIs>
					<LinearRing>
						<coordinates>
							174.7342264166162,-36.8748711135066,0 174.7347143996099,-36.87570420606129,0 174.7362563321567,-36.87507456988831,0 174.7356786800702,-36.87428085431004,0 174.7342264166162,-36.8748711135066,0 
						</coordinates>
					</LinearRing>
				</outerBoundaryIs>
			</Polygon>
		</Placemark>
		<Placemark>
			<name>130 - Morningside Sidings [OUT-OF-SERVICE]</name>
			<styleUrl>#m_ylw-pushpin0</styleUrl>
			<Polygon>
				<tessellate>1</tessellate>
				<outerBoundaryIs>
					<LinearRing>
						<coordinates>
							174.7331943696704,-36.87630451597351,0 174.737080560955,-36.87473915994217,0 174.7370667038052,-36.87437281473836,0 174.7369949700871,-36.87432720351082,0 174.7360145255668,-36.87472692361682,0 174.7344922235634,-36.87537301681206,0 174.7338598723333,-36.87562711040928,0 174.7329943423631,-36.87588478788649,0 174.7331943696704,-36.87630451597351,0 
						</coordinates>
					</LinearRing>
				</outerBoundaryIs>
			</Polygon>
		</Placemark>
		<Placemark>
			<name>131</name>
			<styleUrl>#m_ylw-pushpin0</styleUrl>
			<Polygon>
				<tessellate>1</tessellate>
				<outerBoundaryIs>
					<LinearRing>
						<coordinates>
							174.7354390449888,-36.87397182141155,0 174.7364866733596,-36.87538626219368,0 174.7440519542758,-36.87357887707372,0 174.7432370833915,-36.87194712447202,0 174.7354390449888,-36.87397182141155,0 
						</coordinates>
					</LinearRing>
				</outerBoundaryIs>
			</Polygon>
		</Placemark>
		<Placemark>
			<name>132 - Kingsland</name>
			<styleUrl>#m_ylw-pushpin0</styleUrl>
			<Polygon>
				<tessellate>1</tessellate>
				<outerBoundaryIs>
					<LinearRing>
						<coordinates>
							174.7435364129785,-36.87260261844938,0 174.7437683344355,-36.87304286229549,0 174.7452985306842,-36.87247654708177,0 174.7450850371496,-36.8720461124544,0 174.7435364129785,-36.87260261844938,0 
						</coordinates>
					</LinearRing>
				</outerBoundaryIs>
			</Polygon>
		</Placemark>
		<Placemark>
			<name>133</name>
			<styleUrl>#m_ylw-pushpin0</styleUrl>
			<Polygon>
				<tessellate>1</tessellate>
				<outerBoundaryIs>
					<LinearRing>
						<coordinates>
							174.7456388916809,-36.8733618401106,0 174.7578818755034,-36.86884244536182,0 174.7579820135306,-36.86742595407488,0 174.7443327206045,-36.87025059917008,0 174.7456388916809,-36.8733618401106,0 
						</coordinates>
					</LinearRing>
				</outerBoundaryIs>
			</Polygon>
		</Placemark>
		<Placemark>
			<name>134 - Maungawhau Platform 3:4</name>
			<styleUrl>#m_ylw-pushpin0</styleUrl>
			<Polygon>
				<tessellate>1</tessellate>
				<outerBoundaryIs>
					<LinearRing>
						<coordinates>
							174.7579819759433,-36.86742939281542,0 174.7578731404944,-36.8688053513509,0 174.7628976558315,-36.86947696568836,0 174.7617411247443,-36.86773098605271,0 174.7579819759433,-36.86742939281542,0 
						</coordinates>
					</LinearRing>
				</outerBoundaryIs>
			</Polygon>
		</Placemark>
		<Placemark>
			<name>135</name>
			<styleUrl>#m_ylw-pushpin0</styleUrl>
			<Polygon>
				<tessellate>1</tessellate>
				<outerBoundaryIs>
					<LinearRing>
						<coordinates>
							174.762889169261,-36.86947219741035,0 174.7700501860892,-36.86828785872766,0 174.7656322967979,-36.85809350838043,0 174.7629711412013,-36.85875548600235,0 174.7609331565787,-36.86669311734155,0 174.762889169261,-36.86947219741035,0 
						</coordinates>
					</LinearRing>
				</outerBoundaryIs>
			</Polygon>
		</Placemark>
		<Placemark>
			<name>136 - Grafton</name>
			<styleUrl>#m_ylw-pushpin0</styleUrl>
			<Polygon>
				<tessellate>1</tessellate>
				<outerBoundaryIs>
					<LinearRing>
						<coordinates>
							174.7656180296362,-36.85811111504285,0 174.7700183293161,-36.86826344764511,0 174.7721054669299,-36.86769456004391,0 174.7675405066648,-36.85761293908372,0 174.7656180296362,-36.85811111504285,0 
						</coordinates>
					</LinearRing>
				</outerBoundaryIs>
			</Polygon>
		</Placemark>
		<Placemark>
			<name>137</name>
			<styleUrl>#m_ylw-pushpin0</styleUrl>
			<Polygon>
				<tessellate>1</tessellate>
				<outerBoundaryIs>
					<LinearRing>
						<coordinates>
							174.772061013619,-36.86765918360207,0 174.773249388218,-36.86777574346907,0 174.7749583841826,-36.86230801891723,0 174.7675216312815,-36.8575804595181,0 174.772061013619,-36.86765918360207,0 
						</coordinates>
					</LinearRing>
				</outerBoundaryIs>
			</Polygon>
		</Placemark>
		<Placemark>
			<name>138</name>
			<styleUrl>#m_ylw-pushpin0</styleUrl>
			<Polygon>
				<tessellate>1</tessellate>
				<outerBoundaryIs>
					<LinearRing>
						<coordinates>
							174.7732334453401,-36.86778750879292,0 174.7774875556655,-36.8673828174291,0 174.7783286756263,-36.86448268805411,0 174.7749248748556,-36.86227815016102,0 174.7732334453401,-36.86778750879292,0 
						</coordinates>
					</LinearRing>
				</outerBoundaryIs>
			</Polygon>
		</Placemark>
		<Placemark>
			<name>139 - Newmarket Triangle South:West [OUT-OF-SERVICE,WEST-201]</name>
			<styleUrl>#m_ylw-pushpin0</styleUrl>
			<Polygon>
				<tessellate>1</tessellate>
				<outerBoundaryIs>
					<LinearRing>
						<coordinates>
							174.7788960099688,-36.86661781271503,0 174.7797812933264,-36.86539411519203,0 174.7783174628314,-36.86447361966189,0 174.7774875908985,-36.86738626804915,0 174.7792092300011,-36.86769764811326,0 174.7794222379861,-36.86729595476407,0 174.7793799675646,-36.86697035611219,0 174.7788960099688,-36.86661781271503,0 
						</coordinates>
					</LinearRing>
				</outerBoundaryIs>
			</Polygon>
		</Placemark>
		<Placemark>
			<name>140 - Newmarket (+141)</name>
			<styleUrl>#m_ylw-pushpin0</styleUrl>
			<Polygon>
				<tessellate>1</tessellate>
				<outerBoundaryIs>
					<LinearRing>
						<coordinates>
							174.7763015194496,-36.87181141440539,0 174.7846703090184,-36.87106045971735,0 174.7850304932397,-36.86859862953942,0 174.779516550617,-36.86794615106357,0 174.7795029495484,-36.86755012187235,0 174.7793498805225,-36.8669934374235,0 174.7785498351644,-36.8672799645229,0 174.7732391023828,-36.86777372775132,0 174.7763015194496,-36.87181141440539,0 
						</coordinates>
					</LinearRing>
				</outerBoundaryIs>
			</Polygon>
		</Placemark>
		<Placemark>
			<name>142</name>
			<styleUrl>#m_ylw-pushpin0</styleUrl>
			<Polygon>
				<tessellate>1</tessellate>
				<outerBoundaryIs>
					<LinearRing>
						<coordinates>
							174.7763015194496,-36.87181141440539,0 174.7781917821737,-36.87741404307295,0 174.7848608800353,-36.87533657274493,0 174.7846526975534,-36.87100911119572,0 174.7763015194496,-36.87181141440539,0 
						</coordinates>
					</LinearRing>
				</outerBoundaryIs>
			</Polygon>
		</Placemark>
		<Placemark>
			<name>143</name>
			<styleUrl>#m_ylw-pushpin0</styleUrl>
			<Polygon>
				<tessellate>1</tessellate>
				<outerBoundaryIs>
					<LinearRing>
						<coordinates>
							174.7822722532373,-36.88232492496385,0 174.7875766065304,-36.87929320548999,0 174.784786892694,-36.87531707341961,0 174.7781585897873,-36.87739805879166,0 174.7822722532373,-36.88232492496385,0 
						</coordinates>
					</LinearRing>
				</outerBoundaryIs>
			</Polygon>
		</Placemark>
		<Placemark>
			<name>144 - Remuera</name>
			<styleUrl>#m_ylw-pushpin0</styleUrl>
			<Polygon>
				<tessellate>1</tessellate>
				<outerBoundaryIs>
					<LinearRing>
						<coordinates>
							174.7838321351304,-36.88140525505383,0 174.7851523299119,-36.88252820947739,0 174.7868952143446,-36.88145078097438,0 174.7856253241299,-36.88030258396098,0 174.7838321351304,-36.88140525505383,0 
						</coordinates>
					</LinearRing>
				</outerBoundaryIs>
			</Polygon>
		</Placemark>
		<Placemark>
			<name>145</name>
			<styleUrl>#m_ylw-pushpin0</styleUrl>
			<Polygon>
				<tessellate>1</tessellate>
				<outerBoundaryIs>
					<LinearRing>
						<coordinates>
							174.7876212156662,-36.88098348850171,0 174.7836792893208,-36.88341919714779,0 174.7959004708403,-36.89113853195924,0 174.7977526532809,-36.88880340269061,0 174.7876212156662,-36.88098348850171,0 
						</coordinates>
					</LinearRing>
				</outerBoundaryIs>
			</Polygon>
		</Placemark>
		<Placemark>
			<name>146 - Greenlane</name>
			<styleUrl>#m_ylw-pushpin0</styleUrl>
			<Polygon>
				<tessellate>1</tessellate>
				<outerBoundaryIs>
					<LinearRing>
						<coordinates>
							174.7969597436836,-36.88974227259731,0 174.7983207414819,-36.89050425430865,0 174.7987180505978,-36.89003822396868,0 174.7973674585969,-36.88925960431146,0 174.7969597436836,-36.88974227259731,0 
						</coordinates>
					</LinearRing>
				</outerBoundaryIs>
			</Polygon>
		</Placemark>
		<Placemark>
			<name>147</name>
			<styleUrl>#m_ylw-pushpin0</styleUrl>
			<Polygon>
				<tessellate>1</tessellate>
				<outerBoundaryIs>
					<LinearRing>
						<coordinates>
							174.7980136948525,-36.89076296495715,0 174.8061419757041,-36.89816195154642,0 174.8102559776079,-36.89696278670238,0 174.8091265876044,-36.89234600014161,0 174.7988223494256,-36.88986102023677,0 174.7980136948525,-36.89076296495715,0 
						</coordinates>
					</LinearRing>
				</outerBoundaryIs>
			</Polygon>
		</Placemark>
		<Placemark>
			<name>148 - Ellerslie</name>
			<styleUrl>#m_ylw-pushpin0</styleUrl>
			<Polygon>
				<tessellate>1</tessellate>
				<outerBoundaryIs>
					<LinearRing>
						<coordinates>
							174.8081857179983,-36.89941605826386,0 174.8091346865141,-36.89912409933433,0 174.8083036241363,-36.8974925174453,0 174.8072182615032,-36.8978082200061,0 174.8081857179983,-36.89941605826386,0 
						</coordinates>
					</LinearRing>
				</outerBoundaryIs>
			</Polygon>
		</Placemark>
		<Placemark>
			<name>149</name>
			<styleUrl>#m_ylw-pushpin0</styleUrl>
			<Polygon>
				<tessellate>1</tessellate>
				<outerBoundaryIs>
					<LinearRing>
						<coordinates>
							174.8108150868846,-36.90652276623612,0 174.8151667015302,-36.90968518604574,0 174.815542388368,-36.9095285715717,0 174.8099761112629,-36.89881653133869,0 174.8076318941242,-36.89951560966475,0 174.8108150868846,-36.90652276623612,0 
						</coordinates>
					</LinearRing>
				</outerBoundaryIs>
			</Polygon>
		</Placemark>
		<Placemark>
			<name>150 - Penrose</name>
			<styleUrl>#m_ylw-pushpin0</styleUrl>
			<Polygon>
				<tessellate>1</tessellate>
				<outerBoundaryIs>
					<LinearRing>
						<coordinates>
							174.8159237091656,-36.91096488843412,0 174.8164137906295,-36.91076911203426,0 174.8155878543602,-36.90950691851994,0 174.8151425801808,-36.9096944223075,0 174.8159237091656,-36.91096488843412,0 
						</coordinates>
					</LinearRing>
				</outerBoundaryIs>
			</Polygon>
		</Placemark>
		<Placemark>
			<name>151 - Penrose Platform 3 [ONE-201,OUT-OF-SERVICE]</name>
			<styleUrl>#m_ylw-pushpin0</styleUrl>
			<Polygon>
				<tessellate>1</tessellate>
				<outerBoundaryIs>
					<LinearRing>
						<coordinates>
							174.8146285448347,-36.91197241438735,0 174.8149631922417,-36.91212675767306,0 174.8159261303643,-36.91095871505853,0 174.8154760268671,-36.90993558323129,0 174.8152876119755,-36.90962511582893,0 174.815133921653,-36.90970416339,0 174.8146285448347,-36.91197241438735,0 
						</coordinates>
					</LinearRing>
				</outerBoundaryIs>
			</Polygon>
		</Placemark>
		<Placemark>
			<name>152</name>
			<styleUrl>#m_ylw-pushpin0</styleUrl>
			<Polygon>
				<tessellate>1</tessellate>
				<outerBoundaryIs>
					<LinearRing>
						<coordinates>
							174.8094598430113,-36.9137062612691,0 174.8104791619602,-36.91481625759102,0 174.8152431130874,-36.91226311690804,0 174.8141580201302,-36.91170816646643,0 174.8094598430113,-36.9137062612691,0 
						</coordinates>
					</LinearRing>
				</outerBoundaryIs>
			</Polygon>
		</Placemark>
		<Placemark>
			<name>153</name>
			<styleUrl>#m_ylw-pushpin0</styleUrl>
			<Polygon>
				<tessellate>1</tessellate>
				<outerBoundaryIs>
					<LinearRing>
						<coordinates>
							174.8013166500382,-36.91953598233556,0 174.8021853035951,-36.92015828781944,0 174.8104840666793,-36.91480331026342,0 174.8094440979325,-36.91367986058002,0 174.8013166500382,-36.91953598233556,0 
						</coordinates>
					</LinearRing>
				</outerBoundaryIs>
			</Polygon>
		</Placemark>
		<Placemark>
			<name>154 - Te Papapa</name>
			<styleUrl>#m_ylw-pushpin0</styleUrl>
			<Polygon>
				<tessellate>1</tessellate>
				<outerBoundaryIs>
					<LinearRing>
						<coordinates>
							174.8008686661697,-36.92028664873803,0 174.8010867621198,-36.92048243204461,0 174.8018893556255,-36.91992253490282,0 174.8016601718527,-36.91975714794235,0 174.8008686661697,-36.92028664873803,0 
						</coordinates>
					</LinearRing>
				</outerBoundaryIs>
			</Polygon>
		</Placemark>
		<Placemark>
			<name>155</name>
			<styleUrl>#m_ylw-pushpin0</styleUrl>
			<Polygon>
				<tessellate>1</tessellate>
				<outerBoundaryIs>
					<LinearRing>
						<coordinates>
							174.7868453832965,-36.92453882953965,0 174.787152756509,-36.92561224574546,0 174.7983781581861,-36.92494522872452,0 174.8016277366909,-36.92097139221998,0 174.8004681078313,-36.91988967753939,0 174.7868453832965,-36.92453882953965,0 
						</coordinates>
					</LinearRing>
				</outerBoundaryIs>
			</Polygon>
		</Placemark>
		<Placemark>
			<name>156 - Onehunga</name>
			<styleUrl>#m_ylw-pushpin0</styleUrl>
			<Polygon>
				<tessellate>1</tessellate>
				<outerBoundaryIs>
					<LinearRing>
						<coordinates>
							174.7858153066051,-36.92623027425541,0 174.7861307772678,-36.92640736273642,0 174.7870921539914,-36.92540257579941,0 174.7869688229494,-36.92494837633503,0 174.7858153066051,-36.92623027425541,0 
						</coordinates>
					</LinearRing>
				</outerBoundaryIs>
			</Polygon>
		</Placemark>
		<Placemark>
			<name>157</name>
			<styleUrl>#m_ylw-pushpin0</styleUrl>
			<Polygon>
				<tessellate>1</tessellate>
				<outerBoundaryIs>
					<LinearRing>
						<coordinates>
							174.8206121765405,-36.91836707062225,0 174.8223742469629,-36.91750600426543,0 174.8164015158961,-36.910767001967,0 174.8159305383836,-36.91095741011324,0 174.8206121765405,-36.91836707062225,0 
						</coordinates>
					</LinearRing>
				</outerBoundaryIs>
			</Polygon>
		</Placemark>
		<Placemark>
			<name>158</name>
			<styleUrl>#m_ylw-pushpin0</styleUrl>
			<Polygon>
				<tessellate>1</tessellate>
				<outerBoundaryIs>
					<LinearRing>
						<coordinates>
							174.8293675283427,-36.93043344724844,0 174.8301322640764,-36.93033485325714,0 174.8300382369497,-36.92945599978485,0 174.8295983772559,-36.92655574326879,0 174.8223672691703,-36.91750388456445,0 174.8205856220173,-36.91836697711241,0 174.8293675283427,-36.93043344724844,0 
						</coordinates>
					</LinearRing>
				</outerBoundaryIs>
			</Polygon>
		</Placemark>
		<Placemark>
			<name>159</name>
			<styleUrl>#m_ylw-pushpin0</styleUrl>
			<Polygon>
				<tessellate>1</tessellate>
				<outerBoundaryIs>
					<LinearRing>
						<coordinates>
							174.8310686741247,-36.93016318004688,0 174.8302993614597,-36.93029161268252,0 174.8300438082794,-36.92953904558264,0 174.8301234338184,-36.9303250036924,0 174.8293657467813,-36.93043273303597,0 174.8312829297252,-36.93780045728867,0 174.8326373816268,-36.93760126020881,0 174.8310686741247,-36.93016318004688,0 
						</coordinates>
					</LinearRing>
				</outerBoundaryIs>
			</Polygon>
		</Placemark>
		<Placemark>
			<name>160</name>
			<styleUrl>#m_ylw-pushpin0</styleUrl>
			<Polygon>
				<tessellate>1</tessellate>
				<outerBoundaryIs>
					<LinearRing>
						<coordinates>
							174.8319476997224,-36.94588613693262,0 174.8341216587323,-36.94566872337654,0 174.8327995572215,-36.93757433536559,0 174.8310835628072,-36.93780372033334,0 174.8319476997224,-36.94588613693262,0 
						</coordinates>
					</LinearRing>
				</outerBoundaryIs>
			</Polygon>
		</Placemark>
		<Placemark>
			<name>162 - Otahuhu (+161)</name>
			<styleUrl>#m_ylw-pushpin0</styleUrl>
			<Polygon>
				<tessellate>1</tessellate>
				<outerBoundaryIs>
					<LinearRing>
						<coordinates>
							174.8338704118831,-36.9456891224414,0 174.8322894113831,-36.94585306608817,0 174.8328394118681,-36.94938266708955,0 174.8343311593533,-36.94919105932909,0 174.8338704118831,-36.9456891224414,0 
						</coordinates>
					</LinearRing>
				</outerBoundaryIs>
			</Polygon>
		</Placemark>
		<Placemark>
			<name>163</name>
			<styleUrl>#m_ylw-pushpin0</styleUrl>
			<Polygon>
				<tessellate>1</tessellate>
				<outerBoundaryIs>
					<LinearRing>
						<coordinates>
							174.8347554150253,-36.95844730548718,0 174.8367550922179,-36.95762358618887,0 174.8346545361291,-36.94914998502756,0 174.8326173616969,-36.949396213354,0 174.8347554150253,-36.95844730548718,0 
						</coordinates>
					</LinearRing>
				</outerBoundaryIs>
			</Polygon>
		</Placemark>
		<Placemark>
			<name>164</name>
			<styleUrl>#m_ylw-pushpin0</styleUrl>
			<Polygon>
				<tessellate>1</tessellate>
				<outerBoundaryIs>
					<LinearRing>
						<coordinates>
							174.8375309258718,-36.96241658240933,0 174.8388915875999,-36.96191730054719,0 174.8367548258405,-36.95760769972319,0 174.8347435999976,-36.9584405098425,0 174.8375309258718,-36.96241658240933,0 
						</coordinates>
					</LinearRing>
				</outerBoundaryIs>
			</Polygon>
		</Placemark>
		<Placemark>
			<name>165 - Middlemore</name>
			<styleUrl>#m_ylw-pushpin0</styleUrl>
			<Polygon>
				<tessellate>1</tessellate>
				<outerBoundaryIs>
					<LinearRing>
						<coordinates>
							174.8388845783343,-36.96188392559427,0 174.8379927811497,-36.96220173469746,0 174.8390899458093,-36.96392363112835,0 174.8401283933531,-36.96353454041652,0 174.8388845783343,-36.96188392559427,0 
						</coordinates>
					</LinearRing>
				</outerBoundaryIs>
			</Polygon>
		</Placemark>
		<Placemark>
			<name>166</name>
			<styleUrl>#m_ylw-pushpin0</styleUrl>
			<Polygon>
				<tessellate>1</tessellate>
				<outerBoundaryIs>
					<LinearRing>
						<coordinates>
							174.8384944008564,-36.96384010383016,0 174.8478775348673,-36.97736249419586,0 174.8497474775622,-36.97665125937657,0 174.8401933790112,-36.96323851342,0 174.8384944008564,-36.96384010383016,0 
						</coordinates>
					</LinearRing>
				</outerBoundaryIs>
			</Polygon>
		</Placemark>
		<Placemark>
			<name>167 - Papatoetoe</name>
			<styleUrl>#m_ylw-pushpin0</styleUrl>
			<Polygon>
				<tessellate>1</tessellate>
				<outerBoundaryIs>
					<LinearRing>
						<coordinates>
							174.8490894837604,-36.97687031147028,0 174.8486480264973,-36.97704611167575,0 174.8494932832295,-36.97826555274221,0 174.8499681510206,-36.97810400700648,0 174.8490894837604,-36.97687031147028,0 
						</coordinates>
					</LinearRing>
				</outerBoundaryIs>
			</Polygon>
		</Placemark>
		<Placemark>
			<name>168</name>
			<styleUrl>#m_ylw-pushpin0</styleUrl>
			<Polygon>
				<tessellate>1</tessellate>
				<outerBoundaryIs>
					<LinearRing>
						<coordinates>
							174.8505574943011,-36.97787253183789,0 174.84901598655,-36.97840185049073,0 174.8549509453056,-36.98953740218116,0 174.8567178726963,-36.98900039868221,0 174.8505574943011,-36.97787253183789,0 
						</coordinates>
					</LinearRing>
				</outerBoundaryIs>
			</Polygon>
		</Placemark>
		<Placemark>
			<name>170 - Puhinui (+169)</name>
			<styleUrl>#m_ylw-pushpin0</styleUrl>
			<Polygon>
				<tessellate>1</tessellate>
				<outerBoundaryIs>
					<LinearRing>
						<coordinates>
							174.8562417256361,-36.98913007259174,0 174.8554382470813,-36.98936793033578,0 174.8562501545463,-36.99082651374676,0 174.8569440779123,-36.99059313812177,0 174.8562417256361,-36.98913007259174,0 
						</coordinates>
					</LinearRing>
				</outerBoundaryIs>
			</Polygon>
		</Placemark>
		<Placemark>
			<name>171</name>
			<styleUrl>#m_ylw-pushpin0</styleUrl>
			<Polygon>
				<tessellate>1</tessellate>
				<outerBoundaryIs>
					<LinearRing>
						<coordinates>
							174.8593944492465,-36.99725909620493,0 174.8624642132855,-36.99583695677659,0 174.8574502986482,-36.99039612514277,0 174.8553601158364,-36.9910517596076,0 174.8593944492465,-36.99725909620493,0 
						</coordinates>
					</LinearRing>
				</outerBoundaryIs>
			</Polygon>
		</Placemark>
		<Placemark>
			<name>172 - Wiri Depot Platform</name>
			<styleUrl>#m_ylw-pushpin0</styleUrl>
			<Polygon>
				<tessellate>1</tessellate>
				<outerBoundaryIs>
					<LinearRing>
						<coordinates>
							174.8600933905022,-36.99656436777572,0 174.8601995343824,-36.99654246113557,0 174.8608324182203,-36.99811249487688,0 174.8613039319012,-36.99930346103003,0 174.8617994651002,-37.00059021602533,0 174.8623144172075,-37.0019081099234,0 174.8628085187471,-37.00306973350585,0 174.8634177978934,-37.00276603461774,0 174.8612184013872,-36.99764597440537,0 174.8603810284386,-36.99660177262416,0 174.8602726983932,-36.99639523643729,0 174.8600984803736,-36.99616145906337,0 174.8599826301941,-36.99590820216854,0 174.859723356492,-36.99553759415105,0 174.8600933905022,-36.99656436777572,0 
						</coordinates>
					</LinearRing>
				</outerBoundaryIs>
			</Polygon>
		</Placemark>
		<Placemark>
			<name>173 - Wiri Depot North</name>
			<styleUrl>#m_ylw-pushpin0</styleUrl>
			<Polygon>
				<tessellate>1</tessellate>
				<outerBoundaryIs>
					<LinearRing>
						<coordinates>
							174.8535135268041,-36.99731676893863,0 174.8552524650256,-37.00180672410611,0 174.8618084976052,-37.00058585671091,0 174.8608409262748,-36.99811555812684,0 174.8602040047579,-36.99653581226791,0 174.8535135268041,-36.99731676893863,0 
						</coordinates>
					</LinearRing>
				</outerBoundaryIs>
			</Polygon>
		</Placemark>
		<Placemark>
			<name>174</name>
			<styleUrl>#m_ylw-pushpin0</styleUrl>
			<Polygon>
				<tessellate>1</tessellate>
				<outerBoundaryIs>
					<LinearRing>
						<coordinates>
							174.8651261150903,-37.00869834735332,0 174.8734870758007,-37.0136735210931,0 174.8743933391239,-37.01255888311758,0 174.8637350403526,-37.0025729502922,0 174.8625858451819,-37.00317242359605,0 174.8651261150903,-37.00869834735332,0 
						</coordinates>
					</LinearRing>
				</outerBoundaryIs>
			</Polygon>
		</Placemark>
		<Placemark>
			<name>175 - Wiri Depot South</name>
			<styleUrl>#m_ylw-pushpin0</styleUrl>
			<Polygon>
				<tessellate>1</tessellate>
				<outerBoundaryIs>
					<LinearRing>
						<coordinates>
							174.8645413208802,-37.00943099952247,0 174.8673196463617,-37.01010735083081,0 174.8676398447599,-37.00949938325394,0 174.8671647522745,-37.009237093544,0 174.8668238821685,-37.00902272392859,0 174.8662944846178,-37.00867106226605,0 174.8659083751471,-37.0084109286713,0 174.865474645433,-37.00802988913198,0 174.8650946221555,-37.00762619013354,0 174.8648745665803,-37.00735098981632,0 174.8645698731996,-37.00690204715765,0 174.8644038759998,-37.00662657035361,0 174.8641010144378,-37.00601464984066,0 174.8634886111184,-37.00454943857763,0 174.8630205649282,-37.00347619881983,0 174.8627349224757,-37.00287361846152,0 174.8623435246016,-37.00198642242354,0 174.8618037771975,-37.00057422842561,0 174.8550033703454,-37.00183098199517,0 174.8575395896749,-37.00458547756146,0 174.8645413208802,-37.00943099952247,0 
						</coordinates>
					</LinearRing>
				</outerBoundaryIs>
			</Polygon>
		</Placemark>
		<Placemark>
			<name>176 - Homai</name>
			<styleUrl>#m_ylw-pushpin0</styleUrl>
			<Polygon>
				<tessellate>1</tessellate>
				<outerBoundaryIs>
					<LinearRing>
						<coordinates>
							174.873464661059,-37.01367427105995,0 174.8752762703898,-37.01441012845817,0 174.8768277674529,-37.01388815605626,0 174.8743727988621,-37.01253496484519,0 174.873464661059,-37.01367427105995,0 
						</coordinates>
					</LinearRing>
				</outerBoundaryIs>
			</Polygon>
		</Placemark>
		<Placemark>
			<name>177</name>
			<styleUrl>#m_ylw-pushpin0</styleUrl>
			<Polygon>
				<tessellate>1</tessellate>
				<outerBoundaryIs>
					<LinearRing>
						<coordinates>
							174.8752675537655,-37.01440599435956,0 174.8868404188524,-37.02068261379505,0 174.8885657855102,-37.01773328410538,0 174.8768312293318,-37.01388536707073,0 174.8752675537655,-37.01440599435956,0 
						</coordinates>
					</LinearRing>
				</outerBoundaryIs>
			</Polygon>
		</Placemark>
		<Placemark>
			<name>178</name>
			<styleUrl>#m_ylw-pushpin0</styleUrl>
			<Polygon>
				<tessellate>1</tessellate>
				<outerBoundaryIs>
					<LinearRing>
						<coordinates>
							174.8868423521282,-37.02066862613025,0 174.8951520651449,-37.02342125283305,0 174.8959541817954,-37.02254707989987,0 174.888563096453,-37.01773746168137,0 174.8868423521282,-37.02066862613025,0 
						</coordinates>
					</LinearRing>
				</outerBoundaryIs>
			</Polygon>
		</Placemark>
		<Placemark>
			<name>179 - Manurewa</name>
			<styleUrl>#m_ylw-pushpin0</styleUrl>
			<Polygon>
				<tessellate>1</tessellate>
				<outerBoundaryIs>
					<LinearRing>
						<coordinates>
							174.895327102668,-37.0232070779261,0 174.8966495783289,-37.02428279443682,0 174.89780239664,-37.0238446577998,0 174.8959022300037,-37.02251033611382,0 174.895327102668,-37.0232070779261,0 
						</coordinates>
					</LinearRing>
				</outerBoundaryIs>
			</Polygon>
		</Placemark>
		<Placemark>
			<name>180</name>
			<styleUrl>#m_ylw-pushpin0</styleUrl>
			<Polygon>
				<tessellate>1</tessellate>
				<outerBoundaryIs>
					<LinearRing>
						<coordinates>
							174.8966335249097,-37.02428022780907,0 174.9046117935196,-37.03171866908597,0 174.906756261208,-37.03000838957499,0 174.8978088197161,-37.02383953205603,0 174.8966335249097,-37.02428022780907,0 
						</coordinates>
					</LinearRing>
				</outerBoundaryIs>
			</Polygon>
		</Placemark>
		<Placemark>
			<name>181 - Te Mahia</name>
			<styleUrl>#m_ylw-pushpin0</styleUrl>
			<Polygon>
				<tessellate>1</tessellate>
				<outerBoundaryIs>
					<LinearRing>
						<coordinates>
							174.904566574197,-37.03168291171886,0 174.9059228219432,-37.03269724532432,0 174.9079323030463,-37.03099194814598,0 174.9067222662696,-37.0299680989372,0 174.904566574197,-37.03168291171886,0 
						</coordinates>
					</LinearRing>
				</outerBoundaryIs>
			</Polygon>
		</Placemark>
		<Placemark>
			<name>182</name>
			<styleUrl>#m_ylw-pushpin0</styleUrl>
			<Polygon>
				<tessellate>1</tessellate>
				<outerBoundaryIs>
					<LinearRing>
						<coordinates>
							174.905864155835,-37.03267953635968,0 174.917337223641,-37.04139671647738,0 174.9192106221547,-37.03958296327463,0 174.9078930338346,-37.03093900284107,0 174.905864155835,-37.03267953635968,0 
						</coordinates>
					</LinearRing>
				</outerBoundaryIs>
			</Polygon>
		</Placemark>
		<Placemark>
			<name>183 - Takaanini</name>
			<styleUrl>#m_ylw-pushpin0</styleUrl>
			<Polygon>
				<tessellate>1</tessellate>
				<outerBoundaryIs>
					<LinearRing>
						<coordinates>
							174.917278615569,-37.04134743494581,0 174.9191834430343,-37.04219277738979,0 174.9207450602491,-37.04061493816521,0 174.919164886271,-37.0395508313325,0 174.917278615569,-37.04134743494581,0 
						</coordinates>
					</LinearRing>
				</outerBoundaryIs>
			</Polygon>
		</Placemark>
		<Placemark>
			<name>184</name>
			<styleUrl>#m_ylw-pushpin0</styleUrl>
			<Polygon>
				<tessellate>1</tessellate>
				<outerBoundaryIs>
					<LinearRing>
						<coordinates>
							174.9292159810259,-37.04794392900419,0 174.929951103787,-37.04715873381294,0 174.9206958974999,-37.04058242779027,0 174.9191437591838,-37.04218020888761,0 174.9292159810259,-37.04794392900419,0 
						</coordinates>
					</LinearRing>
				</outerBoundaryIs>
			</Polygon>
		</Placemark>
		<Placemark>
			<name>185</name>
			<styleUrl>#m_ylw-pushpin0</styleUrl>
			<Polygon>
				<tessellate>1</tessellate>
				<outerBoundaryIs>
					<LinearRing>
						<coordinates>
							174.9354565342826,-37.05354722774082,0 174.9371639052847,-37.05252003359913,0 174.9299520236159,-37.04715115949851,0 174.9292044868361,-37.04794611083623,0 174.9354565342826,-37.05354722774082,0 
						</coordinates>
					</LinearRing>
				</outerBoundaryIs>
			</Polygon>
		</Placemark>
		<Placemark>
			<name>186</name>
			<styleUrl>#m_ylw-pushpin0</styleUrl>
			<Polygon>
				<tessellate>1</tessellate>
				<outerBoundaryIs>
					<LinearRing>
						<coordinates>
							174.9455390459608,-37.06414996068957,0 174.9460921311671,-37.06391492667526,0 174.9457115805895,-37.06347086819007,0 174.946235494136,-37.06295202124742,0 174.9371600596133,-37.05250807958961,0 174.9354505983414,-37.05355349353501,0 174.9455390459608,-37.06414996068957,0 
						</coordinates>
					</LinearRing>
				</outerBoundaryIs>
			</Polygon>
		</Placemark>
		<Placemark>
			<name>187 - Papakura Sidings</name>
			<styleUrl>#m_ylw-pushpin0</styleUrl>
			<Polygon>
				<tessellate>1</tessellate>
				<outerBoundaryIs>
					<LinearRing>
						<coordinates>
							174.9460835990953,-37.06391270310904,0 174.9462497612037,-37.06412887672008,0 174.9464870306638,-37.0644516566345,0 174.9467193916581,-37.06479073822481,0 174.9470101570409,-37.06523455552383,0 174.9475814065989,-37.06604918583166,0 174.9482334526882,-37.06699698339789,0 174.9489126181172,-37.06672107291811,0 174.9462289137525,-37.06295300716815,0 174.9457106034861,-37.06347087617677,0 174.9460835990953,-37.06391270310904,0 
						</coordinates>
					</LinearRing>
				</outerBoundaryIs>
			</Polygon>
		</Placemark>
		<Placemark>
			<name>188 - Papakura (+189)</name>
			<styleUrl>#m_ylw-pushpin0</styleUrl>
			<Polygon>
				<tessellate>1</tessellate>
				<outerBoundaryIs>
					<LinearRing>
						<coordinates>
							174.9454518462306,-37.06405276037599,0 174.9473730617575,-37.06652173227827,0 174.9477580721104,-37.06630298521785,0 174.9470117039595,-37.06523658503673,0 174.9468766171541,-37.06501180871392,0 174.9464375608485,-37.06437520451799,0 174.9460268699299,-37.06383591517135,0 174.9454518462306,-37.06405276037599,0 
						</coordinates>
					</LinearRing>
				</outerBoundaryIs>
			</Polygon>
		</Placemark>
		<Placemark>
			<name>190</name>
			<styleUrl>#m_ylw-pushpin0</styleUrl>
			<Polygon>
				<tessellate>1</tessellate>
				<outerBoundaryIs>
					<LinearRing>
						<coordinates>
							174.9473651960797,-37.06650913097724,0 174.9547782314282,-37.07771098343094,0 174.9601081388176,-37.07603728074299,0 174.9485553354367,-37.06686440231584,0 174.9482334329279,-37.06699549081547,0 174.9477583143146,-37.06630202375725,0 174.9473651960797,-37.06650913097724,0 
						</coordinates>
					</LinearRing>
				</outerBoundaryIs>
			</Polygon>
		</Placemark>
		<Placemark>
			<name>191</name>
			<styleUrl>#m_ylw-pushpin0</styleUrl>
			<Polygon>
				<tessellate>1</tessellate>
				<outerBoundaryIs>
					<LinearRing>
						<coordinates>
							174.9556982122332,-37.08518686560209,0 174.9569276810209,-37.08540695124097,0 174.9601328923534,-37.07594823123906,0 174.9547255229231,-37.07768022524753,0 174.9556982122332,-37.08518686560209,0 
						</coordinates>
					</LinearRing>
				</outerBoundaryIs>
			</Polygon>
		</Placemark>
		<Placemark>
			<name>192</name>
			<styleUrl>#m_ylw-pushpin0</styleUrl>
			<Polygon>
				<tessellate>1</tessellate>
				<outerBoundaryIs>
					<LinearRing>
						<coordinates>
							174.9541971929668,-37.08987749182774,0 174.9540468674906,-37.09314324047033,0 174.9551806855696,-37.093137411522,0 174.9569215809981,-37.08539657741494,0 174.9557115240304,-37.08516348498991,0 174.9541971929668,-37.08987749182774,0 
						</coordinates>
					</LinearRing>
				</outerBoundaryIs>
			</Polygon>
		</Placemark>
		<Placemark>
			<name>193</name>
			<styleUrl>#m_ylw-pushpin0</styleUrl>
			<Polygon>
				<tessellate>1</tessellate>
				<outerBoundaryIs>
					<LinearRing>
						<coordinates>
							174.9505189883079,-37.10428211708057,0 174.954506374306,-37.10565612958143,0 174.9551857856898,-37.09312753188734,0 174.9540505826293,-37.09311408464353,0 174.9505189883079,-37.10428211708057,0 
						</coordinates>
					</LinearRing>
				</outerBoundaryIs>
			</Polygon>
		</Placemark>
		<Placemark>
			<name>194 - Drury</name>
			<styleUrl>#m_ylw-pushpin0</styleUrl>
			<Polygon>
				<tessellate>1</tessellate>
				<outerBoundaryIs>
					<LinearRing>
						<coordinates>
							174.9509239811765,-37.10539676040739,0 174.9512411792959,-37.10561785411615,0 174.9521381058187,-37.10482283341686,0 174.9515975790744,-37.10462798991242,0 174.9509239811765,-37.10539676040739,0 
						</coordinates>
					</LinearRing>
				</outerBoundaryIs>
			</Polygon>
		</Placemark>
		<Placemark>
			<name>195</name>
			<styleUrl>#m_ylw-pushpin0</styleUrl>
			<Polygon>
				<tessellate>1</tessellate>
				<outerBoundaryIs>
					<LinearRing>
						<coordinates>
							174.9346934562255,-37.12156328624595,0 174.9369858211584,-37.12340544171786,0 174.9531787902763,-37.10663979219716,0 174.949730307319,-37.10473887722173,0 174.9346934562255,-37.12156328624595,0 
						</coordinates>
					</LinearRing>
				</outerBoundaryIs>
			</Polygon>
		</Placemark>
		<Placemark>
			<name>196 - Ngākōroa</name>
			<styleUrl>#m_ylw-pushpin0</styleUrl>
			<Polygon>
				<tessellate>1</tessellate>
				<outerBoundaryIs>
					<LinearRing>
						<coordinates>
							174.9345059003148,-37.1232900435628,0 174.9352140232359,-37.12385473766986,0 174.9365429399535,-37.12299647865358,0 174.9357429646846,-37.12238051193231,0 174.9345059003148,-37.1232900435628,0 
						</coordinates>
					</LinearRing>
				</outerBoundaryIs>
			</Polygon>
		</Placemark>
		<Placemark>
			<name>197</name>
			<styleUrl>#m_ylw-pushpin0</styleUrl>
			<Polygon>
				<tessellate>1</tessellate>
				<outerBoundaryIs>
					<LinearRing>
						<coordinates>
							174.9287140818595,-37.12700253804549,0 174.9296084481593,-37.12784422710551,0 174.9353597882906,-37.12391578906987,0 174.9343156846699,-37.12309870701452,0 174.9287140818595,-37.12700253804549,0 
						</coordinates>
					</LinearRing>
				</outerBoundaryIs>
			</Polygon>
		</Placemark>
		<Placemark>
			<name>198</name>
			<styleUrl>#m_ylw-pushpin0</styleUrl>
			<Polygon>
				<tessellate>1</tessellate>
				<outerBoundaryIs>
					<LinearRing>
						<coordinates>
							174.9221970049736,-37.13137543212606,0 174.9232229320242,-37.13229413575789,0 174.9296177693704,-37.12783377667552,0 174.9287219837299,-37.12700455497153,0 174.9221970049736,-37.13137543212606,0 
						</coordinates>
					</LinearRing>
				</outerBoundaryIs>
			</Polygon>
		</Placemark>
		<Placemark>
			<name>199</name>
			<styleUrl>#m_ylw-pushpin0</styleUrl>
			<Polygon>
				<tessellate>1</tessellate>
				<outerBoundaryIs>
					<LinearRing>
						<coordinates>
							174.9088376495241,-37.14576269829969,0 174.9234584589864,-37.13247944563995,0 174.921513940967,-37.13076336442791,0 174.9067464327958,-37.14293760537495,0 174.9088376495241,-37.14576269829969,0 
						</coordinates>
					</LinearRing>
				</outerBoundaryIs>
			</Polygon>
		</Placemark>
		<Placemark>
			<name>200</name>
			<styleUrl>#m_ylw-pushpin0</styleUrl>
			<Polygon>
				<tessellate>1</tessellate>
				<outerBoundaryIs>
					<LinearRing>
						<coordinates>
							174.897115707596,-37.15559660746914,0 174.8991756693402,-37.15622303840281,0 174.9079344447737,-37.14447596357572,0 174.9067758006805,-37.14297090621371,0 174.897115707596,-37.15559660746914,0 
						</coordinates>
					</LinearRing>
				</outerBoundaryIs>
			</Polygon>
		</Placemark>
		<Placemark>
			<name>201 - Paerātā</name>
			<styleUrl>#m_ylw-pushpin0</styleUrl>
			<Polygon>
				<tessellate>1</tessellate>
				<outerBoundaryIs>
					<LinearRing>
						<coordinates>
							174.8969114386763,-37.15689934377162,0 174.8980053192203,-37.15729786443652,0 174.8987555357699,-37.15606469364035,0 174.8975780743679,-37.15570162369513,0 174.8969114386763,-37.15689934377162,0 
						</coordinates>
					</LinearRing>
				</outerBoundaryIs>
			</Polygon>
		</Placemark>
		<Placemark>
			<name>202</name>
			<styleUrl>#m_ylw-pushpin0</styleUrl>
			<Polygon>
				<tessellate>1</tessellate>
				<outerBoundaryIs>
					<LinearRing>
						<coordinates>
							174.8916867050538,-37.16447767139616,0 174.8999823280893,-37.17337798544639,0 174.9008778361536,-37.1730021695931,0 174.8990159399557,-37.15764631128183,0 174.8962736991724,-37.15665092979332,0 174.8916867050538,-37.16447767139616,0 
						</coordinates>
					</LinearRing>
				</outerBoundaryIs>
			</Polygon>
		</Placemark>
		<Placemark>
			<name>203</name>
			<styleUrl>#m_ylw-pushpin0</styleUrl>
			<Polygon>
				<tessellate>1</tessellate>
				<outerBoundaryIs>
					<LinearRing>
						<coordinates>
							174.9009890617272,-37.17812060711126,0 174.9019651079435,-37.17770966360651,0 174.9008896222864,-37.17298908880732,0 174.8999406911767,-37.17338405124543,0 174.9009890617272,-37.17812060711126,0 
						</coordinates>
					</LinearRing>
				</outerBoundaryIs>
			</Polygon>
		</Placemark>
		<Placemark>
			<name>204</name>
			<styleUrl>#m_ylw-pushpin0</styleUrl>
			<Polygon>
				<tessellate>1</tessellate>
				<outerBoundaryIs>
					<LinearRing>
						<coordinates>
							174.905010083149,-37.18618637144498,0 174.9063885954598,-37.18635197876748,0 174.9062578447434,-37.17605611391178,0 174.9007440424045,-37.17814302194517,0 174.905010083149,-37.18618637144498,0 
						</coordinates>
					</LinearRing>
				</outerBoundaryIs>
			</Polygon>
		</Placemark>
		<Placemark>
			<name>205</name>
			<styleUrl>#m_ylw-pushpin0</styleUrl>
			<Polygon>
				<tessellate>1</tessellate>
				<outerBoundaryIs>
					<LinearRing>
						<coordinates>
							174.9039720506641,-37.19806996220453,0 174.9094666590395,-37.20269307728879,0 174.9100886469477,-37.20237028524387,0 174.9064189847477,-37.18633364850164,0 174.9050678525375,-37.18617653881458,0 174.9039720506641,-37.19806996220453,0 
						</coordinates>
					</LinearRing>
				</outerBoundaryIs>
			</Polygon>
		</Placemark>
		<Placemark>
			<name>207 - Pukekohe (+206)</name>
			<styleUrl>#m_ylw-pushpin0</styleUrl>
			<Polygon>
				<tessellate>1</tessellate>
				<outerBoundaryIs>
					<LinearRing>
						<coordinates>
							174.9094622115857,-37.20266372969661,0 174.9107457846838,-37.20390018964316,0 174.9113915568466,-37.20441257869667,0 174.9144293267537,-37.20741417427757,0 174.9144519888667,-37.20602975568154,0 174.9101139328342,-37.20232144963354,0 174.9094622115857,-37.20266372969661,0 
						</coordinates>
					</LinearRing>
				</outerBoundaryIs>
			</Polygon>
		</Placemark>
		<Placemark>
			<name>208 - Pukekohe Sidings</name>
			<styleUrl>#m_ylw-pushpin0</styleUrl>
			<Polygon>
				<tessellate>1</tessellate>
				<outerBoundaryIs>
					<LinearRing>
						<coordinates>
							174.9126503587985,-37.2074483775336,0 174.9144343985234,-37.20740744258658,0 174.9113735686849,-37.20439023399241,0 174.9107469147324,-37.20389678494098,0 174.9101577686693,-37.2033323054532,0 174.9095147853507,-37.20271105253209,0 174.9090128290356,-37.20221210191935,0 174.9082711144437,-37.20254577923696,0 174.9126503587985,-37.2074483775336,0 
						</coordinates>
					</LinearRing>
				</outerBoundaryIs>
			</Polygon>
		</Placemark>
		<Placemark>
			<name>300 - The Strand [OUT-OF-SERVICE,HUIA-404]</name>
			<styleUrl>#m_ylw-pushpin0</styleUrl>
			<Polygon>
				<tessellate>1</tessellate>
				<outerBoundaryIs>
					<LinearRing>
						<coordinates>
							174.7781562476959,-36.84849245045946,0 174.7783227284463,-36.84870022729002,0 174.7842997170135,-36.84862927641417,0 174.7842849003908,-36.84831605279564,0 174.7831410083255,-36.84836236645871,0 174.7826620391326,-36.8483556835267,0 174.7805300381399,-36.84821877251898,0 174.778303531577,-36.84831209089128,0 174.7781562476959,-36.84849245045946,0 
						</coordinates>
					</LinearRing>
				</outerBoundaryIs>
			</Polygon>
		</Placemark>
		<Placemark>
			<name>301</name>
			<styleUrl>#m_ylw-pushpin0</styleUrl>
			<Polygon>
				<tessellate>1</tessellate>
				<outerBoundaryIs>
					<LinearRing>
						<coordinates>
							174.7738709689804,-36.84874756301847,0 174.7665417045591,-36.85589902492557,0 174.7801564374664,-36.85317269598702,0 174.7785878968869,-36.84901399860348,0 174.777552006765,-36.84773384739061,0 174.7738709689804,-36.84874756301847,0 
						</coordinates>
					</LinearRing>
				</outerBoundaryIs>
			</Polygon>
		</Placemark>
		<Placemark>
			<name>302 - Parnell</name>
			<styleUrl>#m_ylw-pushpin0</styleUrl>
			<Polygon>
				<tessellate>1</tessellate>
				<outerBoundaryIs>
					<LinearRing>
						<coordinates>
							174.767499700274,-36.85757515018294,0 174.7811962657296,-36.85486198419401,0 174.7801846049786,-36.85315211119231,0 174.7664967527701,-36.85583002810967,0 174.767499700274,-36.85757515018294,0 
						</coordinates>
					</LinearRing>
				</outerBoundaryIs>
			</Polygon>
		</Placemark>
		<Placemark>
			<name>303</name>
			<styleUrl>#m_ylw-pushpin0</styleUrl>
			<Polygon>
				<tessellate>1</tessellate>
				<outerBoundaryIs>
					<LinearRing>
						<coordinates>
							174.7775548514804,-36.86400110070647,0 174.7904375507084,-36.85872408644501,0 174.7811751471206,-36.85485463709873,0 174.7674107319716,-36.85757903263958,0 174.7749052299476,-36.86231622094797,0 174.7775548514804,-36.86400110070647,0 
						</coordinates>
					</LinearRing>
				</outerBoundaryIs>
			</Polygon>
		</Placemark>
		<Placemark>
			<name>304</name>
			<styleUrl>#m_ylw-pushpin0</styleUrl>
			<Polygon>
				<tessellate>1</tessellate>
				<outerBoundaryIs>
					<LinearRing>
						<coordinates>
							174.7775437274711,-36.86398884182186,0 174.779741757085,-36.86539367185397,0 174.785131489396,-36.86828611920787,0 174.7904769738074,-36.85866907189104,0 174.7775437274711,-36.86398884182186,0 
						</coordinates>
					</LinearRing>
				</outerBoundaryIs>
			</Polygon>
		</Placemark>
		<Placemark>
			<name>305 - Newmarket Triangle North:South</name>
			<styleUrl>#m_ylw-pushpin0</styleUrl>
			<Polygon>
				<tessellate>1</tessellate>
				<outerBoundaryIs>
					<LinearRing>
						<coordinates>
							174.7794245208251,-36.86730433568844,0 174.7794911360885,-36.86754870324939,0 174.7794987245057,-36.86794939288367,0 174.7850240951092,-36.86859864731959,0 174.7851696746528,-36.86823994668733,0 174.7805493677924,-36.86582151920518,0 174.7797358974875,-36.86538163583606,0 174.7794893978501,-36.86578254696103,0 174.7798656740136,-36.86637088066058,0 174.7793446483102,-36.86698857459503,0 174.7794245208251,-36.86730433568844,0 
						</coordinates>
					</LinearRing>
				</outerBoundaryIs>
			</Polygon>
		</Placemark>
		<Placemark>
			<name>306 - Newmarket Triangle North:West [OUT-OF-SERVICE]</name>
			<styleUrl>#m_ylw-pushpin0</styleUrl>
			<Polygon>
				<tessellate>1</tessellate>
				<outerBoundaryIs>
					<LinearRing>
						<coordinates>
							174.7787104239795,-36.86670098240329,0 174.7789884428827,-36.86685982590313,0 174.7793452326142,-36.86699676341581,0 174.7797405242347,-36.86681825756216,0 174.7799637129464,-36.86651402198858,0 174.7794841500298,-36.86577951395787,0 174.7787104239795,-36.86670098240329,0 
						</coordinates>
					</LinearRing>
				</outerBoundaryIs>
			</Polygon>
		</Placemark>
		<Placemark>
			<name>307 Maungawhau Triangle North:East [OUT-OF-SERVICE]</name>
			<styleUrl>#m_ylw-pushpin0</styleUrl>
			<Polygon>
				<tessellate>1</tessellate>
				<outerBoundaryIs>
					<LinearRing>
						<coordinates>
							174.7595879445589,-36.86723390335509,0 174.7595912646303,-36.86778264557816,0 174.7605147770355,-36.86810673259044,0 174.7614728809696,-36.86827666359599,0 174.7617799029636,-36.86826917101255,0 174.7620284895939,-36.86820011821688,0 174.7622960774765,-36.8680807568732,0 174.7622507282536,-36.86799301939079,0 174.7602542988167,-36.86601222860958,0 174.7595879445589,-36.86723390335509,0 
						</coordinates>
					</LinearRing>
				</outerBoundaryIs>
			</Polygon>
		</Placemark>
		<Placemark>
			<name>308 - Maungawhau Platform 1:2 [OUT-OF-SERVICE]</name>
			<styleUrl>#m_ylw-pushpin0</styleUrl>
			<Polygon>
				<tessellate>1</tessellate>
				<outerBoundaryIs>
					<LinearRing>
						<coordinates>
							174.7571815491641,-36.8678298464413,0 174.7579592425966,-36.86778960445771,0 174.7595915308571,-36.86778113689295,0 174.759587712919,-36.86723613147924,0 174.7602584025528,-36.8660080523879,0 174.7574121963318,-36.86659360837091,0 174.7565649226097,-36.8677134414186,0 174.7571815491641,-36.8678298464413,0 
						</coordinates>
					</LinearRing>
				</outerBoundaryIs>
			</Polygon>
		</Placemark>
		<Placemark>
			<name>309</name>
			<styleUrl>#m_ylw-pushpin0</styleUrl>
			<Polygon>
				<tessellate>1</tessellate>
				<outerBoundaryIs>
					<LinearRing>
						<coordinates>
							174.7578802838829,-36.86649564637125,0 174.7610337835754,-36.86677639453262,0 174.7630155318211,-36.85872372027492,0 174.7579705866462,-36.85847936573088,0 174.7578802838829,-36.86649564637125,0 
						</coordinates>
					</LinearRing>
				</outerBoundaryIs>
			</Polygon>
		</Placemark>
		<Placemark>
			<name>310 - Karanga-a-Hape</name>
			<styleUrl>#m_ylw-pushpin0</styleUrl>
			<Polygon>
				<tessellate>1</tessellate>
				<outerBoundaryIs>
					<LinearRing>
						<coordinates>
							174.7579823702931,-36.85848075391893,0 174.7592990827743,-36.8585502357179,0 174.7591192705493,-36.85698948894314,0 174.7581946126954,-36.857005334948,0 174.7579823702931,-36.85848075391893,0 
						</coordinates>
					</LinearRing>
				</outerBoundaryIs>
			</Polygon>
		</Placemark>
		<Placemark>
			<name>311</name>
			<styleUrl>#m_ylw-pushpin0</styleUrl>
			<Polygon>
				<tessellate>1</tessellate>
				<outerBoundaryIs>
					<LinearRing>
						<coordinates>
							174.75714760742,-36.85702971131324,0 174.7604856303242,-36.85697562089526,0 174.7632188804991,-36.85044272928969,0 174.7610849828361,-36.84983154555338,0 174.75714760742,-36.85702971131324,0 
						</coordinates>
					</LinearRing>
				</outerBoundaryIs>
			</Polygon>
		</Placemark>
		<Placemark>
			<name>312 - Te Waihorotiu</name>
			<styleUrl>#m_ylw-pushpin0</styleUrl>
			<Polygon>
				<tessellate>1</tessellate>
				<outerBoundaryIs>
					<LinearRing>
						<coordinates>
							174.7623973101929,-36.85022982975109,0 174.7631986213082,-36.85044291522989,0 174.7638809559953,-36.84863402983424,0 174.7631341443168,-36.84843261889112,0 174.7623973101929,-36.85022982975109,0 
						</coordinates>
					</LinearRing>
				</outerBoundaryIs>
			</Polygon>
		</Placemark>
		<Placemark>
			<name>313</name>
			<styleUrl>#m_ylw-pushpin0</styleUrl>
			<Polygon>
				<tessellate>1</tessellate>
				<outerBoundaryIs>
					<LinearRing>
						<coordinates>
							174.7643652436068,-36.84434829746051,0 174.7631316081911,-36.84844382410298,0 174.7638713370509,-36.84864423965043,0 174.7667792686455,-36.847594597782,0 174.7643652436068,-36.84434829746051,0 
						</coordinates>
					</LinearRing>
				</outerBoundaryIs>
			</Polygon>
		</Placemark>
		<Placemark>
			<name>314</name>
			<styleUrl>#m_ylw-pushpin0</styleUrl>
			<Polygon>
				<tessellate>1</tessellate>
				<outerBoundaryIs>
					<LinearRing>
						<coordinates>
							174.7655048011749,-36.8406278145975,0 174.7643647694611,-36.84434821999262,0 174.7667737655446,-36.84760256197491,0 174.7691144957001,-36.8414411506773,0 174.7655048011749,-36.8406278145975,0 
						</coordinates>
					</LinearRing>
				</outerBoundaryIs>
			</Polygon>
		</Placemark>
		<Placemark>
			<name>315 - Waitematā (+316)</name>
			<styleUrl>#m_ylw-pushpin0</styleUrl>
			<Polygon>
				<tessellate>1</tessellate>
				<outerBoundaryIs>
					<LinearRing>
						<coordinates>
							174.7667494068714,-36.84759610082651,0 174.7694929398135,-36.8480775103419,0 174.7717897190351,-36.8420087433047,0 174.7691004202561,-36.84145251485108,0 174.7667494068714,-36.84759610082651,0 
						</coordinates>
					</LinearRing>
				</outerBoundaryIs>
			</Polygon>
		</Placemark>
		<Placemark>
			<name>318 (+317)</name>
			<styleUrl>#m_ylw-pushpin0</styleUrl>
			<Polygon>
				<tessellate>1</tessellate>
				<outerBoundaryIs>
					<LinearRing>
						<coordinates>
							174.7717240061216,-36.842018045645,0 174.7694792438407,-36.84806664662075,0 174.7738951083554,-36.84877045961137,0 174.775234788695,-36.84843391877612,0 174.7778684064933,-36.84344913692915,0 174.7717240061216,-36.842018045645,0 
						</coordinates>
					</LinearRing>
				</outerBoundaryIs>
			</Polygon>
		</Placemark>
		<Placemark>
			<name>319</name>
			<styleUrl>#m_ylw-pushpin0</styleUrl>
			<Polygon>
				<tessellate>1</tessellate>
				<outerBoundaryIs>
					<LinearRing>
						<coordinates>
							174.7778555134283,-36.84345471580786,0 174.7752164383388,-36.8484265488689,0 174.7775444337752,-36.8477283460434,0 174.7803262028326,-36.84557256616344,0 174.7778555134283,-36.84345471580786,0 
						</coordinates>
					</LinearRing>
				</outerBoundaryIs>
			</Polygon>
		</Placemark>
		<Placemark>
			<name>320 - Quay Park Triangle South:West</name>
			<styleUrl>#m_ylw-pushpin0</styleUrl>
			<Polygon>
				<tessellate>1</tessellate>
				<outerBoundaryIs>
					<LinearRing>
						<coordinates>
							174.7788678483412,-36.84776588343498,0 174.7783088683519,-36.84712715885502,0 174.777536484566,-36.84773061394234,0 174.77856681107,-36.8490070581347,0 174.779811682016,-36.84869505903198,0 174.7797325295709,-36.84826668373874,0 174.7788678483412,-36.84776588343498,0 
						</coordinates>
					</LinearRing>
				</outerBoundaryIs>
			</Polygon>
		</Placemark>
		<Placemark>
			<name>321 - Quay Park Triangle East:West</name>
			<styleUrl>#m_ylw-pushpin0</styleUrl>
			<Polygon>
				<tessellate>1</tessellate>
				<outerBoundaryIs>
					<LinearRing>
						<coordinates>
							174.7803058538073,-36.84557189550185,0 174.7783051455513,-36.84712578149731,0 174.7788499860584,-36.84778196381112,0 174.7797151281211,-36.8482639640504,0 174.7798115223711,-36.84870882126715,0 174.7823912527981,-36.8486466045564,0 174.7829381218262,-36.84656842740555,0 174.7803058538073,-36.84557189550185,0 
						</coordinates>
					</LinearRing>
				</outerBoundaryIs>
			</Polygon>
		</Placemark>
		<Placemark>
			<name>322</name>
			<styleUrl>#m_ylw-pushpin0</styleUrl>
			<Polygon>
				<tessellate>1</tessellate>
				<outerBoundaryIs>
					<LinearRing>
						<coordinates>
							174.7823285399542,-36.84870805923775,0 174.7902944470532,-36.84855085093953,0 174.7904773378366,-36.84746807099493,0 174.7826934700356,-36.84743828140645,0 174.7823285399542,-36.84870805923775,0 
						</coordinates>
					</LinearRing>
				</outerBoundaryIs>
			</Polygon>
		</Placemark>
		<Placemark>
			<name>323 - West Car Exchange [OUT-OF-SERVICE]</name>
			<styleUrl>#m_ylw-pushpin0</styleUrl>
			<Polygon>
				<tessellate>1</tessellate>
				<outerBoundaryIs>
					<LinearRing>
						<coordinates>
							174.7823281571823,-36.8486907561489,0 174.78770486149,-36.84855872958252,0 174.7876836446752,-36.84816247706884,0 174.7828960270415,-36.84838219844001,0 174.7822291579842,-36.8484202914443,0 174.7823281571823,-36.8486907561489,0 
						</coordinates>
					</LinearRing>
				</outerBoundaryIs>
			</Polygon>
		</Placemark>
		<Placemark>
			<name>324</name>
			<styleUrl>#m_ylw-pushpin0</styleUrl>
			<Polygon>
				<tessellate>1</tessellate>
				<outerBoundaryIs>
					<LinearRing>
						<coordinates>
							174.7924622093545,-36.84740093704026,0 174.7904679886843,-36.84746752397573,0 174.7902851988248,-36.84854586847047,0 174.7956775980132,-36.85216940216645,0 174.7966107963208,-36.85158774589723,0 174.7924622093545,-36.84740093704026,0 
						</coordinates>
					</LinearRing>
				</outerBoundaryIs>
			</Polygon>
		</Placemark>
		<Placemark>
			<name>325</name>
			<styleUrl>#m_ylw-pushpin0</styleUrl>
			<Polygon>
				<tessellate>1</tessellate>
				<outerBoundaryIs>
					<LinearRing>
						<coordinates>
							174.7965935453768,-36.8515817246168,0 174.7956613588718,-36.85217318966151,0 174.8016023724088,-36.85744526426164,0 174.8024370397151,-36.85693410083535,0 174.7965935453768,-36.8515817246168,0 
						</coordinates>
					</LinearRing>
				</outerBoundaryIs>
			</Polygon>
		</Placemark>
		<Placemark>
			<name>326</name>
			<styleUrl>#m_ylw-pushpin0</styleUrl>
			<Polygon>
				<tessellate>1</tessellate>
				<outerBoundaryIs>
					<LinearRing>
						<coordinates>
							174.802430378118,-36.85692885213788,0 174.8015862616782,-36.85744632345583,0 174.8078709469862,-36.86286446731862,0 174.808748495629,-36.86173884910605,0 174.802430378118,-36.85692885213788,0 
						</coordinates>
					</LinearRing>
				</outerBoundaryIs>
			</Polygon>
		</Placemark>
		<Placemark>
			<name>327 - Ōrākei</name>
			<styleUrl>#m_ylw-pushpin0</styleUrl>
			<Polygon>
				<tessellate>1</tessellate>
				<outerBoundaryIs>
					<LinearRing>
						<coordinates>
							174.8082163446639,-36.86237350207555,0 174.8098709146848,-36.86290207966549,0 174.8101319324534,-36.86237129512231,0 174.8086745623433,-36.8617995502382,0 174.8082163446639,-36.86237350207555,0 
						</coordinates>
					</LinearRing>
				</outerBoundaryIs>
			</Polygon>
		</Placemark>
		<Placemark>
			<name>328</name>
			<styleUrl>#m_ylw-pushpin0</styleUrl>
			<Polygon>
				<tessellate>1</tessellate>
				<outerBoundaryIs>
					<LinearRing>
						<coordinates>
							174.8096128971185,-36.8633247920322,0 174.8197751923297,-36.86669134461616,0 174.8201196622114,-36.86553114876551,0 174.810164762259,-36.86228233059705,0 174.8096128971185,-36.8633247920322,0 
						</coordinates>
					</LinearRing>
				</outerBoundaryIs>
			</Polygon>
		</Placemark>
		<Placemark>
			<name>329 - Meadowbank</name>
			<styleUrl>#m_ylw-pushpin0</styleUrl>
			<Polygon>
				<tessellate>1</tessellate>
				<outerBoundaryIs>
					<LinearRing>
						<coordinates>
							174.8198371013517,-36.86639983968787,0 174.821620946513,-36.86663758931692,0 174.8216193053734,-36.86610813225997,0 174.8199828338987,-36.86594100396904,0 174.8198371013517,-36.86639983968787,0 
						</coordinates>
					</LinearRing>
				</outerBoundaryIs>
			</Polygon>
		</Placemark>
		<Placemark>
			<name>330</name>
			<styleUrl>#m_ylw-pushpin0</styleUrl>
			<Polygon>
				<tessellate>1</tessellate>
				<outerBoundaryIs>
					<LinearRing>
						<coordinates>
							174.8216100829688,-36.86557176167499,0 174.82160712482,-36.86689337173809,0 174.8390442299446,-36.86931029486607,0 174.8414598925251,-36.86630497646342,0 174.8316081802436,-36.86324365299213,0 174.8216100829688,-36.86557176167499,0 
						</coordinates>
					</LinearRing>
				</outerBoundaryIs>
			</Polygon>
		</Placemark>
		<Placemark>
			<name>331</name>
			<styleUrl>#m_ylw-pushpin0</styleUrl>
			<Polygon>
				<tessellate>1</tessellate>
				<outerBoundaryIs>
					<LinearRing>
						<coordinates>
							174.8414546474863,-36.86629271445921,0 174.8390495490214,-36.86931145413999,0 174.8483431494538,-36.87454633658454,0 174.852274423558,-36.87101633911865,0 174.8414546474863,-36.86629271445921,0 
						</coordinates>
					</LinearRing>
				</outerBoundaryIs>
			</Polygon>
		</Placemark>
		<Placemark>
			<name>332</name>
			<styleUrl>#m_ylw-pushpin0</styleUrl>
			<Polygon>
				<tessellate>1</tessellate>
				<outerBoundaryIs>
					<LinearRing>
						<coordinates>
							174.8522836658711,-36.87083425896105,0 174.8482887800564,-36.87456286914237,0 174.8533584845312,-36.87822381002014,0 174.8545185701432,-36.87811072983747,0 174.8522836658711,-36.87083425896105,0 
						</coordinates>
					</LinearRing>
				</outerBoundaryIs>
			</Polygon>
		</Placemark>
		<Placemark>
			<name>333 - Glen Innes</name>
			<styleUrl>#m_ylw-pushpin0</styleUrl>
			<Polygon>
				<tessellate>1</tessellate>
				<outerBoundaryIs>
					<LinearRing>
						<coordinates>
							174.8540078695528,-36.8797472266339,0 174.8547901536162,-36.87966418023883,0 174.854425017035,-36.87809239902425,0 174.8535777327211,-36.87816613685492,0 174.8540078695528,-36.8797472266339,0 
						</coordinates>
					</LinearRing>
				</outerBoundaryIs>
			</Polygon>
		</Placemark>
		<Placemark>
			<name>334</name>
			<styleUrl>#m_ylw-pushpin0</styleUrl>
			<Polygon>
				<tessellate>1</tessellate>
				<outerBoundaryIs>
					<LinearRing>
						<coordinates>
							174.8543868395801,-36.8887618003196,0 174.8558368450522,-36.88908447659728,0 174.8581082022442,-36.87927514700691,0 174.8539114332038,-36.8797466474085,0 174.8543868395801,-36.8887618003196,0 
						</coordinates>
					</LinearRing>
				</outerBoundaryIs>
			</Polygon>
		</Placemark>
		<Placemark>
			<name>335</name>
			<styleUrl>#m_ylw-pushpin0</styleUrl>
			<Polygon>
				<tessellate>1</tessellate>
				<outerBoundaryIs>
					<LinearRing>
						<coordinates>
							174.8489822127491,-36.89641464936634,0 174.8523534635046,-36.89816203717667,0 174.8558300951186,-36.88906875263867,0 174.8543812029298,-36.88875425491365,0 174.8489822127491,-36.89641464936634,0 
						</coordinates>
					</LinearRing>
				</outerBoundaryIs>
			</Polygon>
		</Placemark>
		<Placemark>
			<name>336 - Panmure</name>
			<styleUrl>#m_ylw-pushpin0</styleUrl>
			<Polygon>
				<tessellate>1</tessellate>
				<outerBoundaryIs>
					<LinearRing>
						<coordinates>
							174.8475680367859,-36.89822349354529,0 174.8506054982115,-36.89901467262904,0 174.8517858879102,-36.89784355058327,0 174.8493704210003,-36.89654058742999,0 174.8475680367859,-36.89822349354529,0 
						</coordinates>
					</LinearRing>
				</outerBoundaryIs>
			</Polygon>
		</Placemark>
		<Placemark>
			<name>337</name>
			<styleUrl>#m_ylw-pushpin0</styleUrl>
			<Polygon>
				<tessellate>1</tessellate>
				<outerBoundaryIs>
					<LinearRing>
						<coordinates>
							174.8387420408421,-36.90787959622152,0 174.8494560061438,-36.90986745762184,0 174.8510634255471,-36.89905865581843,0 174.8458389615552,-36.89759874331063,0 174.8387420408421,-36.90787959622152,0 
						</coordinates>
					</LinearRing>
				</outerBoundaryIs>
			</Polygon>
		</Placemark>
		<Placemark>
			<name>338</name>
			<styleUrl>#m_ylw-pushpin0</styleUrl>
			<Polygon>
				<tessellate>1</tessellate>
				<outerBoundaryIs>
					<LinearRing>
						<coordinates>
							174.8416781754258,-36.91401372572248,0 174.8434619774759,-36.91373524718269,0 174.8494817687518,-36.9098047901036,0 174.8386442996945,-36.90777522889031,0 174.8416781754258,-36.91401372572248,0 
						</coordinates>
					</LinearRing>
				</outerBoundaryIs>
			</Polygon>
		</Placemark>
		<Placemark>
			<name>339 - Sylvia Park</name>
			<styleUrl>#m_ylw-pushpin0</styleUrl>
			<Polygon>
				<tessellate>1</tessellate>
				<outerBoundaryIs>
					<LinearRing>
						<coordinates>
							174.8423860602898,-36.91539125754466,0 174.8431900942068,-36.91527282724618,0 174.8428198623712,-36.91379911148714,0 174.8420267940365,-36.91392846960211,0 174.8423860602898,-36.91539125754466,0 
						</coordinates>
					</LinearRing>
				</outerBoundaryIs>
			</Polygon>
		</Placemark>
		<Placemark>
			<name>340</name>
			<styleUrl>#m_ylw-pushpin0</styleUrl>
			<Polygon>
				<tessellate>1</tessellate>
				<outerBoundaryIs>
					<LinearRing>
						<coordinates>
							174.834489077752,-36.92475340354133,0 174.8348870314788,-36.92525124976305,0 174.8450997169545,-36.92044491659062,0 174.8437234099624,-36.91503230113962,0 174.8418222791442,-36.91513128679009,0 174.834489077752,-36.92475340354133,0 
						</coordinates>
					</LinearRing>
				</outerBoundaryIs>
			</Polygon>
		</Placemark>
		<Placemark>
			<name>341</name>
			<styleUrl>#m_ylw-pushpin0</styleUrl>
			<Polygon>
				<tessellate>1</tessellate>
				<outerBoundaryIs>
					<LinearRing>
						<coordinates>
							174.8296093262479,-36.92655303658321,0 174.8300462651249,-36.92955013342947,0 174.8302951150628,-36.93029765717439,0 174.8310754417737,-36.9301666730276,0 174.8348920627492,-36.92524857873542,0 174.8344951231099,-36.92475182207424,0 174.8296093262479,-36.92655303658321,0 
						</coordinates>
					</LinearRing>
				</outerBoundaryIs>
			</Polygon>
		</Placemark>
		<Placemark>
			<name>342 - Manukau North:East</name>
			<styleUrl>#m_ylw-pushpin0</styleUrl>
			<Polygon>
				<tessellate>1</tessellate>
				<outerBoundaryIs>
					<LinearRing>
						<coordinates>
							174.8604920477745,-36.99675030369009,0 174.8612142956466,-36.99764824203158,0 174.8631137427321,-36.99809194792399,0 174.8631620720441,-36.99450529136086,0 174.8604920477745,-36.99675030369009,0 
						</coordinates>
					</LinearRing>
				</outerBoundaryIs>
			</Polygon>
		</Placemark>
		<Placemark>
			<name>343</name>
			<styleUrl>#m_ylw-pushpin0</styleUrl>
			<Polygon>
				<tessellate>1</tessellate>
				<outerBoundaryIs>
					<LinearRing>
						<coordinates>
							174.8630575710042,-36.9999458748734,0 174.8765764719192,-36.99912560209643,0 174.8714037586747,-36.98973856431684,0 174.8630558195294,-36.99431043978336,0 174.8630575710042,-36.9999458748734,0 
						</coordinates>
					</LinearRing>
				</outerBoundaryIs>
			</Polygon>
		</Placemark>
		<Placemark>
			<name>344 - Manukau</name>
			<styleUrl>#m_ylw-pushpin0</styleUrl>
			<Polygon>
				<tessellate>1</tessellate>
				<outerBoundaryIs>
					<LinearRing>
						<coordinates>
							174.8764872142769,-36.99914979608403,0 174.8860928820442,-36.99560204324049,0 174.8813880767298,-36.98690621293811,0 174.871384736001,-36.98972557658774,0 174.8764872142769,-36.99914979608403,0 
						</coordinates>
					</LinearRing>
				</outerBoundaryIs>
			</Polygon>
		</Placemark>
		<atom:link rel="app" href="https://www.google.com/earth/about/versions/#earth-pro" title="Google Earth Pro 7.3.6.10201"></atom:link>
	</Folder>
</Document>
</kml>
